NORAD_CAT_ID,OBJECT_NAME,OBJECT_TYPE,EPOCH,MEAN_MOTION,ECCENTRICITY,INCLINATION,RA_OF_ASC_NODE,ARG_OF_PERICENTER,MEAN_ANOMALY,BSTAR,MEAN_MOTION_DOT,MEAN_MOTION_DDOT,TLE_LINE0,TLE_LINE1,TLE_LINE2,SEMIMAJOR_AXIS,PERIOD,APOGEE,PERIGEE,DECAYED
55418.0,STARLINK-5030,PAYLOAD,2024-04-06 14:04:32,14.98332947,0.0002711,70.0007,54.7189,269.2433,90.8416,-3.8496e-05,-5.52e-06,0.0,0 STARLINK-5030,1 55418U 23014AD  24097.58648881 -.00000552  00000-0 -38496-4 0  9991,2 55418  70.0007  54.7189 0002711 269.2433  90.8416 14.98332947 66395,6950.184,96.107,573.933,570.165,0.0
55418.0,STARLINK-5030,PAYLOAD,2024-04-06 22:05:12,14.98332,0.0002741,70.0006,53.877,270.017,90.0675,-3.1582e-05,-4.7e-06,0.0,0 STARLINK-5030,1 55418U 23014AD  24097.92028831 -.00000470  00000-0 -31582-4 0  9994,2 55418  70.0006  53.8770 0002741 270.0170  90.0675 14.98332000 66446,6950.187,96.107,573.957,570.147,0.0
55418.0,STARLINK-5030,PAYLOAD,2024-04-07 06:05:53,14.98329946,0.0002632,70.0008,53.0347,265.5113,94.5746,-3.4738e-05,-5.07e-06,0.0,0 STARLINK-5030,1 55418U 23014AD  24098.25408931 -.00000507  00000-0 -34738-4 0  9991,2 55418  70.0008  53.0347 0002632 265.5113  94.5746 14.98329946 66493,6950.193,96.107,573.887,570.229,0.0
55418.0,STARLINK-5030,PAYLOAD,2024-04-07 22:07:13,14.98329014,0.0002638,70.0008,51.352,260.4444,99.6417,-2.65e-05,-4.09e-06,0.0,0 STARLINK-5030,1 55418U 23014AD  24098.92168943 -.00000409  00000-0 -26500-4 0  9990,2 55418  70.0008  51.3520 0002638 260.4444  99.6417 14.98329014 66592,6950.196,96.107,573.894,570.227,0.0
55418.0,STARLINK-5030,PAYLOAD,2024-04-08 04:31:46,14.98329255,0.0002839,70.0005,50.6779,268.0677,92.0157,-2.0519e-05,-3.38e-06,0.0,0 STARLINK-5030,1 55418U 23014AD  24099.18872952 -.00000338  00000-0 -20519-4 0  9996,2 55418  70.0005  50.6779 0002839 268.0677  92.0157 14.98329255 65697,6950.195,96.107,574.033,570.087,0.0
55418.0,STARLINK-5030,PAYLOAD,2024-04-08 14:08:34,14.98329961,0.0002625,70.0012,49.6675,272.4499,87.636,4.7463e-06,-3.6e-07,0.0,0 STARLINK-5030,1 55418U 23014AD  24099.58928943 -.00000036  00000-0  47463-5 0  9994,2 55418  70.0012  49.6675 0002625 272.4499  87.6360 14.98329961 66693,6950.193,96.107,573.882,570.234,0.0
55418.0,STARLINK-5030,PAYLOAD,2024-04-08 23:45:22,14.98329035,0.0002898,70.0004,48.6581,271.1175,88.9652,6.4632e-06,-1.6e-07,0.0,0 STARLINK-5030,1 55418U 23014AD  24099.98984899 -.00000016  00000-0  64632-5 0  9995,2 55418  70.0004  48.6581 0002898 271.1175  88.9652 14.98329035 66755,6950.196,96.107,574.075,570.047,0.0
55418.0,STARLINK-5030,PAYLOAD,2024-04-09 04:33:46,14.98330073,0.0003101,70.0004,48.153,272.8752,87.2052,8.56e-05,9.28e-06,0.0,0 STARLINK-5030,1 55418U 23014AD  24100.19012604  .00000928  00000-0  85600-4 0  9995,2 55418  70.0004  48.1530 0003101 272.8752  87.2052 14.98330073 65840,6950.193,96.107,574.213,569.902,0.0
55418.0,STARLINK-5030,PAYLOAD,2024-04-09 14:10:36,14.98305292,0.000287,70.0005,47.1432,280.3166,79.767,0.00045021,5.279e-05,0.0,0 STARLINK-5030,1 55418U 23014AD  24100.59069524  .00005279  00000-0  45021-3 0  9998,2 55418  70.0005  47.1432 0002870 280.3166  79.7670 14.98305292 66844,6950.269,96.109,574.129,570.14,0.0
55418.0,STARLINK-5030,PAYLOAD,2024-04-10 04:35:47,14.98331527,0.0002987,70.0005,45.6279,270.8898,89.1919,3.887e-05,3.71e-06,0.0,0 STARLINK-5030,1 55418U 23014AD  24101.19152553  .00000371  00000-0  38870-4 0  9993,2 55418  70.0005  45.6279 0002987 270.8898  89.1919 14.98331527 65997,6950.188,96.107,574.129,569.977,0.0
55418.0,STARLINK-5030,PAYLOAD,2024-04-10 06:11:55,14.98332847,0.0002973,70.0006,45.4596,270.8291,89.2527,5.2311e-05,5.31e-06,0.0,0 STARLINK-5030,1 55418U 23014AD  24101.25828422  .00000531  00000-0  52311-4 0  9999,2 55418  70.0006  45.4596 0002973 270.8291  89.2527 14.98332847 66948,6950.184,96.107,574.115,569.983,0.0
55418.0,STARLINK-5030,PAYLOAD,2024-04-10 22:13:16,14.98328956,0.0002911,70.0008,43.7762,271.0108,89.0717,-1.7696e-05,-3.04e-06,0.0,0 STARLINK-5030,1 55418U 23014AD  24101.92588825 -.00000304  00000-0 -17696-4 0  9990,2 55418  70.0008  43.7762 0002911 271.0108  89.0717 14.98328956 67045,6950.196,96.107,574.084,570.038,0.0
55418.0,STARLINK-5030,PAYLOAD,2024-04-11 04:37:48,14.98330634,0.0003012,70.0007,43.1034,271.0275,89.0539,-2.487e-05,-3.9e-06,0.0,0 STARLINK-5030,1 55418U 23014AD  24102.19292732 -.00000390  00000-0 -24870-4 0  9996,2 55418  70.0007  43.1034 0003012 271.0275  89.0539 14.98330634 66146,6950.191,96.107,574.149,569.963,0.0
55418.0,STARLINK-5030,PAYLOAD,2024-04-11 06:13:56,14.98329667,0.0002889,70.0009,42.935,268.1918,91.891,1.1398e-05,4.3e-07,0.0,0 STARLINK-5030,1 55418U 23014AD  24102.25968701  .00000043  00000-0  11398-4 0  9993,2 55418  70.0009  42.9350 0002889 268.1918  91.8910 14.98329667 67091,6950.194,96.107,574.067,570.051,0.0
55418.0,STARLINK-5030,PAYLOAD,2024-04-11 22:15:17,14.98331134,0.0002944,70.0014,41.2529,270.5474,89.5348,2.4328e-05,1.97e-06,0.0,0 STARLINK-5030,1 55418U 23014AD  24102.92728539  .00000197  00000-0  24328-4 0  9997,2 55418  70.0014  41.2529 0002944 270.5474  89.5348 14.98331134 67195,6950.189,96.107,574.101,570.008,0.0
55418.0,STARLINK-5030,PAYLOAD,2024-04-12 04:39:49,14.98329664,0.0002898,70.0014,40.5797,268.4252,91.6575,0.00011295,1.255e-05,0.0,0 STARLINK-5030,1 55418U 23014AD  24103.19432350  .00001255  00000-0  11295-3 0  9994,2 55418  70.0014  40.5797 0002898 268.4252  91.6575 14.98329664 66293,6950.194,96.107,574.073,570.045,0.0
55418.0,STARLINK-5030,PAYLOAD,2024-04-12 06:15:57,14.98329768,0.0002801,70.0015,40.4115,265.9182,94.1657,0.00012402,1.387e-05,0.0,0 STARLINK-5030,1 55418U 23014AD  24103.26108316  .00001387  00000-0  12402-3 0  9991,2 55418  70.0015  40.4115 0002801 265.9182  94.1657 14.98329768 67245,6950.194,96.107,574.005,570.112,0.0
55418.0,STARLINK-5030,PAYLOAD,2024-04-12 22:17:18,14.98326079,0.0002741,70.002,38.7296,262.2248,97.8599,3.0876e-05,2.75e-06,0.0,0 STARLINK-5030,1 55418U 23014AD  24103.92868736  .00000275  00000-0  30876-4 0  9994,2 55418  70.0020  38.7296 0002741 262.2248  97.8599 14.98326079 67345,6950.205,96.107,573.975,570.165,0.0
55418.0,STARLINK-5030,PAYLOAD,2024-04-13 04:41:50,14.98326684,0.0002664,70.0024,38.0558,254.9789,105.1075,6.0979e-05,6.35e-06,0.0,0 STARLINK-5030,1 55418U 23014AD  24104.19572662  .00000635  00000-0  60979-4 0  9991,2 55418  70.0024  38.0558 0002664 254.9789 105.1075 14.98326684 66449,6950.203,96.107,573.92,570.217,0.0
55418.0,STARLINK-5030,PAYLOAD,2024-04-13 06:17:58,14.98326134,0.0002629,70.0026,37.8875,257.0288,103.0577,5.6818e-05,5.85e-06,0.0,0 STARLINK-5030,1 55418U 23014AD  24104.26248738  .00000585  00000-0  56818-4 0  9994,2 55418  70.0026  37.8875 0002629 257.0288 103.0577 14.98326134 67398,6950.205,96.107,573.897,570.243,0.0
55418.0,STARLINK-5030,PAYLOAD,2024-04-13 20:43:11,14.98335007,0.0002637,70.0024,36.3734,249.9847,110.1028,-2.2697e-06,-1.2e-06,0.0,0 STARLINK-5030,1 55418U 23014AD  24104.86332249 -.00000120  00000-0 -22697-5 0  9997,2 55418  70.0024  36.3734 0002637 249.9847 110.1028 14.98335007 67483,6950.177,96.107,573.875,570.21,0.0
55418.0,STARLINK-5030,PAYLOAD,2024-04-14 04:43:51,14.98334443,0.0002617,70.0025,35.5312,249.5925,110.4953,3.4641e-05,3.2e-06,0.0,0 STARLINK-5030,1 55418U 23014AD  24105.19712092  .00000320  00000-0  34641-4 0  9993,2 55418  70.0025  35.5312 0002617 249.5925 110.4953 14.98334443 66592,6950.179,96.107,573.863,570.225,0.0
55418.0,STARLINK-5030,PAYLOAD,2024-04-14 22:21:20,14.98329889,0.0002593,70.0026,33.6798,250.1383,109.9497,1.3235e-05,6.5e-07,0.0,0 STARLINK-5030,1 55418U 23014AD  24105.93148387  .00000065  00000-0  13235-4 0  9997,2 55418  70.0026  33.6798 0002593 250.1383 109.9497 14.98329889 67640,6950.193,96.107,573.86,570.256,0.0
55418.0,STARLINK-5030,PAYLOAD,2024-04-15 04:45:52,14.98331205,0.000258,70.0028,33.0068,247.9403,112.1483,2.7633e-05,2.37e-06,0.0,0 STARLINK-5030,1 55418U 23014AD  24106.19852253  .00000237  00000-0  27633-4 0  9998,2 55418  70.0028  33.0068 0002580 247.9403 112.1483 14.98331205 66745,6950.189,96.107,573.847,570.261,0.0
55418.0,STARLINK-5030,PAYLOAD,2024-04-15 20:47:12,14.98332851,0.0002624,70.0023,31.3218,259.916,100.1703,8.9037e-07,-8.2e-07,0.0,0 STARLINK-5030,1 55418U 23014AD  24106.86612170 -.00000082  00000-0  89037-6 0  9991,2 55418  70.0023  31.3218 0002624 259.9160 100.1703 14.98332851 67785,6950.184,96.107,573.873,570.225,0.0
55418.0,STARLINK-5030,PAYLOAD,2024-04-16 04:47:52,14.98337651,0.0002559,70.0025,30.4801,267.8157,92.2709,7.2493e-05,7.72e-06,0.0,0 STARLINK-5030,1 55418U 23014AD  24107.19991662  .00000772  00000-0  72493-4 0  9995,2 55418  70.0025  30.4801 0002559 267.8157  92.2709 14.98337651 66897,6950.169,96.107,573.813,570.256,0.0
55418.0,STARLINK-5030,PAYLOAD,2024-04-16 22:25:21,14.98336068,0.0002993,70.0025,28.6299,271.3617,88.7199,0.00014404,1.626e-05,0.0,0 STARLINK-5030,1 55418U 23014AD  24107.93427183  .00001626  00000-0  14404-3 0  9995,2 55418  70.0025  28.6299 0002993 271.3617  88.7199 14.98336068 67941,6950.174,96.107,574.119,569.959,0.0
55418.0,STARLINK-5030,PAYLOAD,2024-04-17 01:37:36,14.98346246,0.0002819,70.0023,28.2926,268.7872,91.2964,0.00025277,2.926e-05,0.0,0 STARLINK-5030,1 55418U 23014AD  24108.06778158  .00002926  00000-0  25277-3 0  9995,2 55418  70.0023  28.2926 0002819 268.7872  91.2964 14.98346246 67029,6950.143,96.106,573.967,570.048,0.0
55418.0,STARLINK-5030,PAYLOAD,2024-04-17 04:49:52,14.98346579,0.000271,70.0028,27.9565,268.265,91.8199,0.00035008,4.088e-05,0.0,0 STARLINK-5030,1 55418U 23014AD  24108.20129812  .00004088  00000-0  35008-3 0  9992,2 55418  70.0028  27.9565 0002710 268.2650  91.8199 14.98346579 67988,6950.142,96.106,573.89,570.123,0.0
55418.0,STARLINK-5030,PAYLOAD,2024-04-17 19:15:07,14.9831639,0.0003135,70.0024,26.4401,267.4381,92.6419,-0.0001649,-2.059e-05,0.0,0 STARLINK-5030,1 55418U 23014AD  24108.80216968 -.00002059  00000-0 -16490-3 0  9999,2 55418  70.0024  26.4401 0003135 267.4381  92.6419 14.98316390 67130,6950.235,96.108,574.279,569.921,0.0
